{"type": "FeatureCollection", "features": [ {"type": "Feature", "properties": {"norad_id": 34077, "name": "IRIDIUM 33 DEB", "group": "iridium-33-debris", "lat": 32.107905741718604, "lon": 57.55883573889758, "alt_km": 670.1826432278986, "timestamp": "2025-12-04T03:47:54.927241+00:00", "meta": {"OBJECT_NAME": "IRIDIUM 33 DEB", "OBJECT_ID": "1997-051CL", "EPOCH": "2025-12-03T04:49:49.513728", "MEAN_MOTION": 14.64572021, "ECCENTRICITY": 0.00109608, "INCLINATION": 86.3873, "RA_OF_ASC_NODE": 55.7079, "ARG_OF_PERICENTER": 69.3732, "MEAN_ANOMALY": 320.4311, "EPHEMERIS_TYPE": 0, "CLASSIFICATION_TYPE": "U", "NORAD_CAT_ID": 34077, "ELEMENT_SET_NO": 999, "REV_AT_EPOCH": 88193, "BSTAR": 0.0022894081, "MEAN_MOTION_DOT": 0.0001219, "MEAN_MOTION_DDOT": 0}, "tle": {"line1": "1 34077U 97051CL  25337.20126752  .00012190  00000+0  22894-2 0  9997", "line2": "2 34077  86.3873  55.7079 0010960  69.3732 320.4311 14.64572021881932"}}, "geometry": {"type": "Point", "coordinates": [57.55883573889758, 32.107905741718604]}}, {"type": "Feature", "properties": {"norad_id": 34079, "name": "IRIDIUM 33 DEB", "group": "iridium-33-debris", "lat": 10.071842610980168, "lon": -168.0801189815439, "alt_km": 624.4709654121034, "timestamp": "2025-12-04T03:47:54.927252+00:00", "meta": {"OBJECT_NAME": "IRIDIUM 33 DEB", "OBJECT_ID": "1997-051CN", "EPOCH": "2025-12-03T09:30:48.355200", "MEAN_MOTION": 14.83132899, "ECCENTRICITY": 0.0006722, "INCLINATION": 86.3782, "RA_OF_ASC_NODE": 12.9106, "ARG_OF_PERICENTER": 36.4792, "MEAN_ANOMALY": 28.0106, "EPHEMERIS_TYPE": 0, "CLASSIFICATION_TYPE": "U", "NORAD_CAT_ID": 34079, "ELEMENT_SET_NO": 999, "REV_AT_EPOCH": 88839, "BSTAR": 0.0021224, "MEAN_MOTION_DOT": 0.00017354, "MEAN_MOTION_DDOT": 0}, "tle": {"line1": "1 34079U 97051CN  25337.39639300  .00017354  00000+0  21224-2 0  9990", "line2": "2 34079  86.3782  12.9106 0006722  36.4792  28.0106 14.83132899888397"}}, "geometry": {"type": "Point", "coordinates": [-168.0801189815439, 10.071842610980168]}}, {"type": "Feature", "properties": {"norad_id": 34088, "name": "IRIDIUM 33 DEB", "group": "iridium-33-debris", "lat": 23.113746734218292, "lon": 36.21098744324607, "alt_km": 599.1294097635764, "timestamp": "2025-12-04T03:47:54.927262+00:00", "meta": {"OBJECT_NAME": "IRIDIUM 33 DEB", "OBJECT_ID": "1997-051CX", "EPOCH": "2025-12-03T10:01:58.293984", "MEAN_MOTION": 14.90629069, "ECCENTRICITY": 0.0005179, "INCLINATION": 86.386, "RA_OF_ASC_NODE": 35.0047, "ARG_OF_PERICENTER": 211.1891, "MEAN_ANOMALY": 162.3362, "EPHEMERIS_TYPE": 0, "CLASSIFICATION_TYPE": "U", "NORAD_CAT_ID": 34088, "ELEMENT_SET_NO": 999, "REV_AT_EPOCH": 88603, "BSTAR": 0.0033725, "MEAN_MOTION_DOT": 0.00033173, "MEAN_MOTION_DDOT": 0}, "tle": {"line1": "1 34088U 97051CX  25337.41803581  .00033173  00000+0  33725-2 0  9993", "line2": "2 34088  86.3860  35.0047 0005179 211.1891 162.3362 14.90629069886034"}}, "geometry": {"type": "Point", "coordinates": [36.21098744324607, 23.113746734218292]}}, {"type": "Feature", "properties": {"norad_id": 34091, "name": "IRIDIUM 33 DEB", "group": "iridium-33-debris", "lat": 30.28270508523963, "lon": -111.37952243451711, "alt_km": 648.6206102504975, "timestamp": "2025-12-04T03:47:54.927272+00:00", "meta": {"OBJECT_NAME": "IRIDIUM 33 DEB", "OBJECT_ID": "1997-051DA", "EPOCH": "2025-12-03T12:31:35.787072", "MEAN_MOTION": 14.80633508, "ECCENTRICITY": 0.0032922, "INCLINATION": 86.3425, "RA_OF_ASC_NODE": 71.0519, "ARG_OF_PERICENTER": 326.4248, "MEAN_ANOMALY": 33.4886, "EPHEMERIS_TYPE": 0, "CLASSIFICATION_TYPE": "U", "NORAD_CAT_ID": 34091, "ELEMENT_SET_NO": 999, "REV_AT_EPOCH": 87730, "BSTAR": 0.0066529, "MEAN_MOTION_DOT": 0.00051895, "MEAN_MOTION_DDOT": 0}, "tle": {"line1": "1 34091U 97051DA  25337.52194198  .00051895  00000+0  66529-2 0  9995", "line2": "2 34091  86.3425  71.0519 0032922 326.4248  33.4886 14.80633508877302"}}, "geometry": {"type": "Point", "coordinates": [-111.37952243451711, 30.28270508523963]}}, {"type": "Feature", "properties": {"norad_id": 34097, "name": "IRIDIUM 33 DEB", "group": "iridium-33-debris", "lat": 34.834331010715, "lon": 7.846324985768347, "alt_km": 714.2966756192645, "timestamp": "2025-12-04T03:47:54.927282+00:00", "meta": {"OBJECT_NAME": "IRIDIUM 33 DEB", "OBJECT_ID": "1997-051DG", "EPOCH": "2025-12-03T09:13:33.436128", "MEAN_MOTION": 14.34659428, "ECCENTRICITY": 0.0083674, "INCLINATION": 86.2008, "RA_OF_ASC_NODE": 5.5372, "ARG_OF_PERICENTER": 32.5438, "MEAN_ANOMALY": 328.0876, "EPHEMERIS_TYPE": 0, "CLASSIFICATION_TYPE": "U", "NORAD_CAT_ID": 34097, "ELEMENT_SET_NO": 999, "REV_AT_EPOCH": 86985, "BSTAR": 0.0017654, "MEAN_MOTION_DOT": 5.213e-05, "MEAN_MOTION_DDOT": 0}, "tle": {"line1": "1 34097U 97051DG  25337.38441477  .00005213  00000+0  17654-2 0  9998", "line2": "2 34097  86.2008   5.5372 0083674  32.5438 328.0876 14.34659428869850"}}, "geometry": {"type": "Point", "coordinates": [7.846324985768347, 34.834331010715]}}, {"type": "Feature", "properties": {"norad_id": 34145, "name": "IRIDIUM 33 DEB", "group": "iridium-33-debris", "lat": 71.44384338526797, "lon": -12.265970240097348, "alt_km": 718.5595318989544, "timestamp": "2025-12-04T03:47:54.927292+00:00", "meta": {"OBJECT_NAME": "IRIDIUM 33 DEB", "OBJECT_ID": "1997-051DY", "EPOCH": "2025-12-03T10:48:54.133056", "MEAN_MOTION": 14.42182821, "ECCENTRICITY": 0.005529, "INCLINATION": 86.2113, "RA_OF_ASC_NODE": 336.664, "ARG_OF_PERICENTER": 123.3414, "MEAN_ANOMALY": 237.3097, "EPHEMERIS_TYPE": 0, "CLASSIFICATION_TYPE": "U", "NORAD_CAT_ID": 34145, "ELEMENT_SET_NO": 999, "REV_AT_EPOCH": 87504, "BSTAR": 0.0014092, "MEAN_MOTION_DOT": 4.745e-05, "MEAN_MOTION_DDOT": 0}, "tle": {"line1": "1 34145U 97051DY  25337.45062654  .00004745  00000+0  14092-2 0  9998", "line2": "2 34145  86.2113 336.6640 0055290 123.3414 237.3097 14.42182821875045"}}, "geometry": {"type": "Point", "coordinates": [-12.265970240097348, 71.44384338526797]}}, {"type": "Feature", "properties": {"norad_id": 34146, "name": "IRIDIUM 33 DEB", "group": "iridium-33-debris", "lat": -41.29877891683273, "lon": 176.86535046180984, "alt_km": 720.5548373151714, "timestamp": "2025-12-04T03:47:54.927302+00:00", "meta": {"OBJECT_NAME": "IRIDIUM 33 DEB", "OBJECT_ID": "1997-051DZ", "EPOCH": "2025-12-03T12:34:09.121152", "MEAN_MOTION": 14.48941519, "ECCENTRICITY": 0.0024987, "INCLINATION": 86.2835, "RA_OF_ASC_NODE": 353.8721, "ARG_OF_PERICENTER": 254.6968, "MEAN_ANOMALY": 258.8958, "EPHEMERIS_TYPE": 0, "CLASSIFICATION_TYPE": "U", "NORAD_CAT_ID": 34146, "ELEMENT_SET_NO": 999, "REV_AT_EPOCH": 87973, "BSTAR": 0.0014032, "MEAN_MOTION_DOT": 5.353e-05, "MEAN_MOTION_DDOT": 0}, "tle": {"line1": "1 34146U 97051DZ  25337.52371668  .00005353  00000+0  14032-2 0  9995", "line2": "2 34146  86.2835 353.8721 0024987 254.6968 258.8958 14.48941519879736"}}, "geometry": {"type": "Point", "coordinates": [176.86535046180984, -41.29877891683273]}}, {"type": "Feature", "properties": {"norad_id": 34159, "name": "IRIDIUM 33 DEB", "group": "iridium-33-debris", "lat": -80.0745765509534, "lon": -106.71511034745733, "alt_km": 760.7586903385154, "timestamp": "2025-12-04T03:47:54.927313+00:00", "meta": {"OBJECT_NAME": "IRIDIUM 33 DEB", "OBJECT_ID": "1997-051EN", "EPOCH": "2025-12-03T11:33:44.047584", "MEAN_MOTION": 14.38455653, "ECCENTRICITY": 0.0026516, "INCLINATION": 86.3515, "RA_OF_ASC_NODE": 52.188, "ARG_OF_PERICENTER": 320.2185, "MEAN_ANOMALY": 39.7068, "EPHEMERIS_TYPE": 0, "CLASSIFICATION_TYPE": "U", "NORAD_CAT_ID": 34159, "ELEMENT_SET_NO": 999, "REV_AT_EPOCH": 87826, "BSTAR": 0.00060665, "MEAN_MOTION_DOT": 1.877e-05, "MEAN_MOTION_DDOT": 0}, "tle": {"line1": "1 34159U 97051EN  25337.48175981  .00001877  00000+0  60665-3 0  9995", "line2": "2 34159  86.3515  52.1880 0026516 320.2185  39.7068 14.38455653878265"}}, "geometry": {"type": "Point", "coordinates": [-106.71511034745733, -80.0745765509534]}}, {"type": "Feature", "properties": {"norad_id": 34350, "name": "IRIDIUM 33 DEB", "group": "iridium-33-debris", "lat": 76.31847382496025, "lon": 21.826065766937802, "alt_km": 732.4370151682278, "timestamp": "2025-12-04T03:47:54.927323+00:00", "meta": {"OBJECT_NAME": "IRIDIUM 33 DEB", "OBJECT_ID": "1997-051ES", "EPOCH": "2025-12-03T02:46:10.970400", "MEAN_MOTION": 14.45350997, "ECCENTRICITY": 0.00218335, "INCLINATION": 86.3282, "RA_OF_ASC_NODE": 6.9833, "ARG_OF_PERICENTER": 165.5973, "MEAN_ANOMALY": 248.6185, "EPHEMERIS_TYPE": 0, "CLASSIFICATION_TYPE": "U", "NORAD_CAT_ID": 34350, "ELEMENT_SET_NO": 999, "REV_AT_EPOCH": 88154, "BSTAR": 0.00041343011, "MEAN_MOTION_DOT": 1.476e-05, "MEAN_MOTION_DDOT": 0}, "tle": {"line1": "1 34350U 97051ES  25337.11540475  .00001476  00000+0  41343-3 0  9999", "line2": "2 34350  86.3282   6.9833 0021833 165.5973 248.6185 14.45350997881545"}}, "geometry": {"type": "Point", "coordinates": [21.826065766937802, 76.31847382496025]}}, {"type": "Feature", "properties": {"norad_id": 34366, "name": "IRIDIUM 33 DEB", "group": "iridium-33-debris", "lat": 40.971712878443, "lon": -130.1147700749155, "alt_km": 696.1031982747409, "timestamp": "2025-12-04T03:47:54.927333+00:00", "meta": {"OBJECT_NAME": "IRIDIUM 33 DEB", "OBJECT_ID": "1997-051FJ", "EPOCH": "2025-12-03T16:10:25.403232", "MEAN_MOTION": 14.53916692, "ECCENTRICITY": 0.0021768, "INCLINATION": 86.3709, "RA_OF_ASC_NODE": 53.2552, "ARG_OF_PERICENTER": 168.8, "MEAN_ANOMALY": 316.5476, "EPHEMERIS_TYPE": 0, "CLASSIFICATION_TYPE": "U", "NORAD_CAT_ID": 34366, "ELEMENT_SET_NO": 999, "REV_AT_EPOCH": 88050, "BSTAR": 0.0018859, "MEAN_MOTION_DOT": 7.981e-05, "MEAN_MOTION_DDOT": 0}, "tle": {"line1": "1 34366U 97051FJ  25337.67390513  .00007981  00000+0  18859-2 0  9995", "line2": "2 34366  86.3709  53.2552 0021768 168.8000 316.5476 14.53916692880505"}}, "geometry": {"type": "Point", "coordinates": [-130.1147700749155, 40.971712878443]}}]}